ORBCOMM-X               
1 21576U 91050C   26065.41504499  .00000432  00000+0  14014-3 0  9992
2 21576  98.3074 131.2373 0004807 109.5772 250.5938 14.43514148819942
ORBCOMM FM01            
1 23545U 95017A   26065.45422191  .00008054  00000+0  75039-3 0  9991
2 23545  69.9611 138.0442 0007437 277.9403  82.0909 14.94573225651639
ORBCOMM FM02            
1 23546U 95017B   26065.35996265  .00010637  00000+0  93673-3 0  9993
2 23546  69.9631 156.3206 0008596 278.4653  81.5530 14.96661998651308
ORBCOMM FM08            
1 25112U 97084A   26065.51821227  .00002636  00000+0  75756-3 0  9995
2 25112  45.0125 187.4789 0006874 155.3336 204.7846 14.46967295479357
ORBCOMM FM10            
1 25113U 97084B   26065.54256975  .00002759  00000+0  79551-3 0  9994
2 25113  45.0136 190.2538 0004385 125.7133 234.4128 14.46695221654495
ORBCOMM FM11            
1 25114U 97084C   26065.52450891  .00002385  00000+0  69701-3 0  9997
2 25114  45.0117 191.4615 0005214 123.8972 236.2376 14.46428027479449
ORBCOMM FM12            
1 25115U 97084D   26065.55209371  .00002326  00000+0  68030-3 0  9995
2 25115  45.0127 191.0496 0004283 125.0925 235.0329 14.46456994479248
ORBCOMM FM09            
1 25116U 97084E   26065.54191385  .00001968  00000+0  58386-3 0  9994
2 25116  45.0135 192.3379 0005124 106.5853 253.5562 14.46280108479449
ORBCOMM FM05            
1 25117U 97084F   26065.60186321  .00002456  00000+0  70692-3 0  9993
2 25117  45.0127 187.0446 0002273 151.5099 208.5878 14.47077887478607
ORBCOMM FM06            
1 25118U 97084G   26065.63759301  .00002773  00000+0  79015-3 0  9991
2 25118  45.0124 186.2821 0001682 180.2186 193.9637 14.47255959479533
ORBCOMM FM07            
1 25119U 97084H   26065.50864106  .00002448  00000+0  70227-3 0  9993
2 25119  45.0119 187.6426 0002765 135.7580 224.3494 14.47258974479507
ORBCOMM FM03            
1 25158U 98007B   26065.60804144  .00001286  00000+0  48922-3 0  9995
2 25158 107.9634 314.9695 0043138 151.2062 209.1472 14.35294371461685
ORBCOMM FM04            
1 25159U 98007C   26065.61763055  .00001180  00000+0  45152-3 0  9997
2 25159 107.9620 318.3859 0038927 148.3867 211.9622 14.35522101461875
ORBCOMM FM17            
1 25413U 98046A   26065.44197234  .00000998  00000+0  39083-3 0  9996
2 25413  44.9936  99.2917 0000356 113.4025 246.6860 14.35736211440855
ORBCOMM FM18            
1 25414U 98046B   26065.85365289  .00001850  00000+0  63392-3 0  9997
2 25414  44.9941   7.5091 0002944 179.7321 180.3529 14.39438304442085
ORBCOMM FM19            
1 25415U 98046C   26064.87175385  .00001636  00000+0  56785-3 0  9995
2 25415  44.9955  14.5706 0001560 174.1787 235.0487 14.39257355441894
