[{"OBJECT_NAME":"ORBCOMM-X","OBJECT_ID":"1991-050C","EPOCH":"2026-03-06T09:57:39.887136","MEAN_MOTION":14.43514148,"ECCENTRICITY":0.0004807,"INCLINATION":98.3074,"RA_OF_ASC_NODE":131.2373,"ARG_OF_PERICENTER":109.5772,"MEAN_ANOMALY":250.5938,"EPHEMERIS_TYPE":0,"CLASSIFICATION_TYPE":"U","NORAD_CAT_ID":21576,"ELEMENT_SET_NO":999,"REV_AT_EPOCH":81994,"BSTAR":0.00014013789,"MEAN_MOTION_DOT":4.32e-6,"MEAN_MOTION_DDOT":0},{"OBJECT_NAME":"ORBCOMM FM01","OBJECT_ID":"1995-017A","EPOCH":"2026-03-06T10:54:04.773024","MEAN_MOTION":14.94573225,"ECCENTRICITY":0.00074373,"INCLINATION":69.9611,"RA_OF_ASC_NODE":138.0442,"ARG_OF_PERICENTER":277.9403,"MEAN_ANOMALY":82.0909,"EPHEMERIS_TYPE":0,"CLASSIFICATION_TYPE":"U","NORAD_CAT_ID":23545,"ELEMENT_SET_NO":999,"REV_AT_EPOCH":65163,"BSTAR":0.00075039144,"MEAN_MOTION_DOT":8.054e-5,"MEAN_MOTION_DDOT":0},{"OBJECT_NAME":"ORBCOMM FM02","OBJECT_ID":"1995-017B","EPOCH":"2026-03-06T08:38:20.772960","MEAN_MOTION":14.96661998,"ECCENTRICITY":0.00085964,"INCLINATION":69.9631,"RA_OF_ASC_NODE":156.3206,"ARG_OF_PERICENTER":278.4653,"MEAN_ANOMALY":81.553,"EPHEMERIS_TYPE":0,"CLASSIFICATION_TYPE":"U","NORAD_CAT_ID":23546,"ELEMENT_SET_NO":999,"REV_AT_EPOCH":65130,"BSTAR":0.00093672691,"MEAN_MOTION_DOT":0.00010637,"MEAN_MOTION_DDOT":0},{"OBJECT_NAME":"ORBCOMM FM08","OBJECT_ID":"1997-084A","EPOCH":"2026-03-06T12:26:13.540128","MEAN_MOTION":14.46967295,"ECCENTRICITY":0.00068743,"INCLINATION":45.0125,"RA_OF_ASC_NODE":187.4789,"ARG_OF_PERICENTER":155.3336,"MEAN_ANOMALY":204.7846,"EPHEMERIS_TYPE":0,"CLASSIFICATION_TYPE":"U","NORAD_CAT_ID":25112,"ELEMENT_SET_NO":999,"REV_AT_EPOCH":47935,"BSTAR":0.00075756025,"MEAN_MOTION_DOT":2.636e-5,"MEAN_MOTION_DDOT":0},{"OBJECT_NAME":"ORBCOMM FM10","OBJECT_ID":"1997-084B","EPOCH":"2026-03-06T13:01:18.026400","MEAN_MOTION":14.46695221,"ECCENTRICITY":0.00043855,"INCLINATION":45.0136,"RA_OF_ASC_NODE":190.2538,"ARG_OF_PERICENTER":125.7133,"MEAN_ANOMALY":234.4128,"EPHEMERIS_TYPE":0,"CLASSIFICATION_TYPE":"U","NORAD_CAT_ID":25113,"ELEMENT_SET_NO":999,"REV_AT_EPOCH":65449,"BSTAR":0.00079551064,"MEAN_MOTION_DOT":2.759e-5,"MEAN_MOTION_DDOT":0},{"OBJECT_NAME":"ORBCOMM FM11","OBJECT_ID":"1997-084C","EPOCH":"2026-03-06T12:35:17.569824","MEAN_MOTION":14.46428027,"ECCENTRICITY":0.00052143,"INCLINATION":45.0117,"RA_OF_ASC_NODE":191.4615,"ARG_OF_PERICENTER":123.8972,"MEAN_ANOMALY":236.2376,"EPHEMERIS_TYPE":0,"CLASSIFICATION_TYPE":"U","NORAD_CAT_ID":25114,"ELEMENT_SET_NO":999,"REV_AT_EPOCH":47944,"BSTAR":0.00069700606,"MEAN_MOTION_DOT":2.385e-5,"MEAN_MOTION_DDOT":0},{"OBJECT_NAME":"ORBCOMM FM12","OBJECT_ID":"1997-084D","EPOCH":"2026-03-06T13:15:00.896544","MEAN_MOTION":14.46456994,"ECCENTRICITY":0.00042836,"INCLINATION":45.0127,"RA_OF_ASC_NODE":191.0496,"ARG_OF_PERICENTER":125.0925,"MEAN_ANOMALY":235.0329,"EPHEMERIS_TYPE":0,"CLASSIFICATION_TYPE":"U","NORAD_CAT_ID":25115,"ELEMENT_SET_NO":999,"REV_AT_EPOCH":47924,"BSTAR":0.00068030226,"MEAN_MOTION_DOT":2.326e-5,"MEAN_MOTION_DDOT":0},{"OBJECT_NAME":"ORBCOMM FM09","OBJECT_ID":"1997-084E","EPOCH":"2026-03-06T13:00:21.356640","MEAN_MOTION":14.46280108,"ECCENTRICITY":0.00051247,"INCLINATION":45.0135,"RA_OF_ASC_NODE":192.3379,"ARG_OF_PERICENTER":106.5853,"MEAN_ANOMALY":253.5562,"EPHEMERIS_TYPE":0,"CLASSIFICATION_TYPE":"U","NORAD_CAT_ID":25116,"ELEMENT_SET_NO":999,"REV_AT_EPOCH":47944,"BSTAR":0.00058386406,"MEAN_MOTION_DOT":1.968e-5,"MEAN_MOTION_DDOT":0},{"OBJECT_NAME":"ORBCOMM FM05","OBJECT_ID":"1997-084F","EPOCH":"2026-03-06T14:26:40.981344","MEAN_MOTION":14.47077887,"ECCENTRICITY":0.00022732,"INCLINATION":45.0127,"RA_OF_ASC_NODE":187.0446,"ARG_OF_PERICENTER":151.5099,"MEAN_ANOMALY":208.5878,"EPHEMERIS_TYPE":0,"CLASSIFICATION_TYPE":"U","NORAD_CAT_ID":25117,"ELEMENT_SET_NO":999,"REV_AT_EPOCH":47860,"BSTAR":0.00070692427,"MEAN_MOTION_DOT":2.456e-5,"MEAN_MOTION_DDOT":0},{"OBJECT_NAME":"ORBCOMM FM06","OBJECT_ID":"1997-084G","EPOCH":"2026-03-06T15:18:08.036064","MEAN_MOTION":14.47255959,"ECCENTRICITY":0.00016828,"INCLINATION":45.0124,"RA_OF_ASC_NODE":186.2821,"ARG_OF_PERICENTER":180.2186,"MEAN_ANOMALY":193.9637,"EPHEMERIS_TYPE":0,"CLASSIFICATION_TYPE":"U","NORAD_CAT_ID":25118,"ELEMENT_SET_NO":999,"REV_AT_EPOCH":47953,"BSTAR":0.00079015459,"MEAN_MOTION_DOT":2.773e-5,"MEAN_MOTION_DDOT":0},{"OBJECT_NAME":"ORBCOMM FM07","OBJECT_ID":"1997-084H","EPOCH":"2026-03-06T12:12:26.587584","MEAN_MOTION":14.47258974,"ECCENTRICITY":0.00027655,"INCLINATION":45.0119,"RA_OF_ASC_NODE":187.6426,"ARG_OF_PERICENTER":135.758,"MEAN_ANOMALY":224.3494,"EPHEMERIS_TYPE":0,"CLASSIFICATION_TYPE":"U","NORAD_CAT_ID":25119,"ELEMENT_SET_NO":999,"REV_AT_EPOCH":47950,"BSTAR":0.00070226941,"MEAN_MOTION_DOT":2.448e-5,"MEAN_MOTION_DDOT":0},{"OBJECT_NAME":"ORBCOMM FM03","OBJECT_ID":"1998-007B","EPOCH":"2026-03-06T14:35:34.780416","MEAN_MOTION":14.35294371,"ECCENTRICITY":0.00431384,"INCLINATION":107.9634,"RA_OF_ASC_NODE":314.9695,"ARG_OF_PERICENTER":151.2062,"MEAN_ANOMALY":209.1472,"EPHEMERIS_TYPE":0,"CLASSIFICATION_TYPE":"U","NORAD_CAT_ID":25158,"ELEMENT_SET_NO":999,"REV_AT_EPOCH":46168,"BSTAR":0.00048921923,"MEAN_MOTION_DOT":1.286e-5,"MEAN_MOTION_DDOT":0},{"OBJECT_NAME":"ORBCOMM FM04","OBJECT_ID":"1998-007C","EPOCH":"2026-03-06T14:49:23.279520","MEAN_MOTION":14.35522101,"ECCENTRICITY":0.00389277,"INCLINATION":107.962,"RA_OF_ASC_NODE":318.3859,"ARG_OF_PERICENTER":148.3867,"MEAN_ANOMALY":211.9622,"EPHEMERIS_TYPE":0,"CLASSIFICATION_TYPE":"U","NORAD_CAT_ID":25159,"ELEMENT_SET_NO":999,"REV_AT_EPOCH":46187,"BSTAR":0.00045152072,"MEAN_MOTION_DOT":1.18e-5,"MEAN_MOTION_DDOT":0},{"OBJECT_NAME":"ORBCOMM FM17","OBJECT_ID":"1998-046A","EPOCH":"2026-03-06T10:36:26.410176","MEAN_MOTION":14.35736211,"ECCENTRICITY":3.562e-5,"INCLINATION":44.9936,"RA_OF_ASC_NODE":99.2917,"ARG_OF_PERICENTER":113.4025,"MEAN_ANOMALY":246.686,"EPHEMERIS_TYPE":0,"CLASSIFICATION_TYPE":"U","NORAD_CAT_ID":25413,"ELEMENT_SET_NO":999,"REV_AT_EPOCH":44085,"BSTAR":0.00039083029,"MEAN_MOTION_DOT":9.98e-6,"MEAN_MOTION_DDOT":0},{"OBJECT_NAME":"ORBCOMM FM18","OBJECT_ID":"1998-046B","EPOCH":"2026-03-06T20:29:15.609696","MEAN_MOTION":14.39438304,"ECCENTRICITY":0.0002944,"INCLINATION":44.9941,"RA_OF_ASC_NODE":7.5091,"ARG_OF_PERICENTER":179.7321,"MEAN_ANOMALY":180.3529,"EPHEMERIS_TYPE":0,"CLASSIFICATION_TYPE":"U","NORAD_CAT_ID":25414,"ELEMENT_SET_NO":999,"REV_AT_EPOCH":44208,"BSTAR":0.00063392,"MEAN_MOTION_DOT":1.85e-5,"MEAN_MOTION_DDOT":0},{"OBJECT_NAME":"ORBCOMM FM19","OBJECT_ID":"1998-046C","EPOCH":"2026-03-05T20:55:19.532640","MEAN_MOTION":14.39257355,"ECCENTRICITY":0.00015608,"INCLINATION":44.9955,"RA_OF_ASC_NODE":14.5706,"ARG_OF_PERICENTER":174.1787,"MEAN_ANOMALY":235.0487,"EPHEMERIS_TYPE":0,"CLASSIFICATION_TYPE":"U","NORAD_CAT_ID":25415,"ELEMENT_SET_NO":999,"REV_AT_EPOCH":44189,"BSTAR":0.00056784984,"MEAN_MOTION_DOT":1.636e-5,"MEAN_MOTION_DDOT":0}]
